OBJECT_NAME,OBJECT_ID,EPOCH,MEAN_MOTION,ECCENTRICITY,INCLINATION,RA_OF_ASC_NODE,ARG_OF_PERICENTER,MEAN_ANOMALY,EPHEMERIS_TYPE,CLASSIFICATION_TYPE,NORAD_CAT_ID,ELEMENT_SET_NO,REV_AT_EPOCH,BSTAR,MEAN_MOTION_DOT,MEAN_MOTION_DDOT
H-2A R/B,2006-002B,2026-06-09T03:28:07.404096,15.17961465,.00496262,98.2556,315.2476,290.3908,69.1997,0,U,28932,999,10830,.24688179E-3,.5092E-4,0
RESURS-DK 1,2006-021A,2026-06-09T07:13:43.558176,15.13181843,.00065391,69.9339,359.9664,298.0089,62.0415,0,U,29228,999,10138,.1255203E-3,.2125E-4,0
CZ-4B R/B,2006-046C,2026-06-09T01:51:54.641664,15.17723411,.00313408,97.5456,204.7097,312.2930,47.5647,0,U,29507,999,7390,.17631264E-3,.353E-4,0
CZ-2C R/B,2007-010B,2026-06-09T05:45:48.431232,14.20274415,.00594752,98.4091,268.9801,29.1128,331.3344,0,U,31114,999,99271,.53224094E-4,.75E-6,0
COSMO-SKYMED 1,2007-023A,2026-06-09T05:57:18.051840,14.97063004,.00010809,97.8856,352.0383,82.2467,277.8877,0,U,31598,999,2860,.15741838E-3,.1754E-4,0
COSMOS 2428,2007-029A,2026-06-09T06:50:53.264544,14.12929724,.0007215,70.9374,11.0694,150.1446,210.0088,0,U,31792,999,97703,-.66117206E-4,-.171E-5,0
SL-16 R/B,2007-029B,2026-06-09T06:49:58.954368,14.14850685,.00022225,70.9760,339.8411,258.8495,278.9960,0,U,31793,999,97832,.18809507E-3,.315E-5,0
KORONAS-FOTON,2009-003A,2026-06-09T02:46:14.377152,15.45555714,.00107758,82.4293,180.6785,174.3353,185.8020,0,U,33504,999,95985,.2027851E-3,.98E-4,0
CZ-2C R/B,2011-030B,2026-06-09T03:07:13.802304,14.81451200,.00535863,97.8652,115.6620,53.6987,322.0569,0,U,37731,999,80363,.15068503E-3,.1154E-4,0
H-2A R/B,2012-025E,2026-06-09T04:42:11.604960,14.95671339,.0044227,98.4813,134.6827,15.0551,345.1972,0,U,38341,999,76189,.24513378E-3,.2709E-4,0
SHIJIAN-16 (SJ-16),2013-057A,2026-06-09T06:18:53.472096,14.92592219,.00169323,74.9734,11.6920,249.0898,110.8478,0,U,39358,999,68516,.54055286E-4,.528E-5,0
SL-4 R/B,2014-021B,2026-06-08T12:12:08.021088,15.41771019,.00916416,51.6058,253.2847,74.4037,286.7040,0,U,39679,999,67027,.22119414E-3,.10612E-3,0
ALOS-2,2014-029A,2026-06-08T13:11:42.167040,14.79472067,.00016718,97.9210,256.8376,90.6305,269.5098,0,U,39766,999,65030,.20114351E-3,.1451E-4,0
YAOGAN-29,2015-069A,2026-06-09T06:49:00.283584,14.83077115,.00028776,98.0033,188.9045,66.2455,293.9060,0,U,41038,999,56945,.3074846E-5,-.29E-6,0
ASTRO-H (HITOMI),2016-012A,2026-06-09T04:05:41.270784,15.10475751,.00096288,30.9980,125.9593,173.7339,186.3421,0,U,41337,999,56607,.11712381E-3,.2073E-4,0
HXMT (HUIYAN),2017-034A,2026-06-09T07:21:27.813888,15.18422256,.00301821,43.0132,226.9215,95.1631,265.2663,0,U,42758,999,49646,.19305374E-3,.3848E-4,0
SAOCOM 1A,2018-076A,2026-06-09T07:18:53.847360,14.82169059,.00015205,97.8889,347.1683,77.3290,282.8093,0,U,43641,999,41493,.37192178E-4,.244E-5,0
H-2A R/B,2018-084L,2026-06-09T05:26:43.043712,15.44846396,.00241848,98.8593,37.3792,66.9346,293.4445,0,U,43682,999,41989,.36412192E-3,.17164E-3,0
SAOCOM 1B,2020-059A,2026-06-09T06:26:43.312704,14.82163910,.00014732,97.8891,346.2270,80.1782,279.9598,0,U,46265,999,31231,.49780075E-4,.344E-5,0
CSS (TIANHE),2021-035A,2026-06-09T05:36:48.541824,15.60473761,.00084146,41.4695,10.3915,13.9110,346.1959,0,U,48274,999,29192,.23663045E-3,.19782E-3,0
COSMOS 2550,2021-056A,2026-06-08T19:23:25.914048,15.33755463,.0008705,67.1416,125.2525,266.0377,93.9783,0,U,48865,999,27743,.19790476E-3,.631E-4,0
CZ-2C R/B,2022-058K,2026-06-09T07:22:49.772064,15.61315635,.00330032,50.1847,204.5029,234.9929,124.7946,0,U,52794,999,22441,.31507935E-3,.27646E-3,0
CZ-2C R/B,2022-132E,2026-06-08T23:59:22.014240,15.70563245,.00169419,97.2913,166.6634,109.3959,250.9136,0,U,54039,999,20466,.42431678E-3,.52653E-3,0
GSLV R/B,2022-138AN,2026-06-08T21:31:46.603488,14.97221421,.00216027,87.3798,135.7685,172.4257,187.7305,0,U,54149,999,19757,.19341803E-3,.2276E-4,0
XRISM,2023-137A,2026-06-09T00:10:14.204640,15.12393787,.00079239,31.0027,52.5857,242.6869,117.2963,0,U,57800,999,15162,.2387637E-3,.4348E-4,0
ACS3,2024-077B,2026-06-09T05:42:04.122144,13.93922347,.00537006,97.1675,80.8012,68.3267,292.3607,0,U,59588,999,10693,.1583025E-1,.21179E-3,0
CZ-8A R/B,2025-231K,2026-06-09T00:23:49.729056,14.30152604,.0116475,50.0043,74.0772,195.2486,164.4907,0,U,66004,999,3377,.47016343E-4,-.32E-6,0
SZ-21 MODULE,2025-246C,2026-06-08T20:26:08.101824,15.75674541,.00067,41.4714,359.2138,299.9993,60.0186,0,U,66515,999,3242,.25860117E-3,.40731E-3,0
