H-2A R/B                
1 28932U 06002B   26160.14453014  .00005092  00000+0  24688-3 0  9995
2 28932  98.2556 315.2476 0049626 290.3908  69.1997 15.17961465108305
RESURS-DK 1             
1 29228U 06021A   26160.30119859  .00002125  00000+0  12552-3 0  9990
2 29228  69.9339 359.9664 0006539 298.0089  62.0415 15.13181843101381
CZ-4B R/B               
1 29507U 06046C   26160.07771576  .00003530  00000+0  17631-3 0  9995
2 29507  97.5456 204.7097 0031340 312.2930  47.5647 15.17723411 73905
CZ-2C R/B               
1 31114U 07010B   26160.24014388  .00000075  00000+0  53224-4 0  9994
2 31114  98.4091 268.9801 0059475  29.1128 331.3344 14.20274415992719
COSMO-SKYMED 1          
1 31598U 07023A   26160.24812560  .00001754  00000+0  15742-3 0  9999
2 31598  97.8856 352.0383 0001080  82.2467 277.8877 14.97063004 28609
COSMOS 2428             
1 31792U 07029A   26160.28533871 -.00000171  00000+0 -66117-4 0  9997
2 31792  70.9374  11.0694 0007215 150.1446 210.0088 14.12929724977037
SL-16 R/B               
1 31793U 07029B   26160.28471012  .00000315  00000+0  18810-3 0  9990
2 31793  70.9760 339.8411 0002222 258.8495 278.9960 14.14850685978324
KORONAS-FOTON           
1 33504U 09003A   26160.11544418  .00009800  00000+0  20279-3 0  9999
2 33504  82.4293 180.6785 0010775 174.3353 185.8020 15.45555714959858
CZ-2C R/B               
1 37731U 11030B   26160.13002086  .00001154  00000+0  15069-3 0  9995
2 37731  97.8652 115.6620 0053586  53.6987 322.0569 14.81451200803639
H-2A R/B                
1 38341U 12025E   26160.19596765  .00002709  00000+0  24513-3 0  9997
2 38341  98.4813 134.6827 0044227  15.0551 345.1972 14.95671339761891
SHIJIAN-16 (SJ-16)      
1 39358U 13057A   26160.26311889  .00000528  00000+0  54055-4 0  9994
2 39358  74.9734  11.6920 0016932 249.0898 110.8478 14.92592219685163
SL-4 R/B                
1 39679U 14021B   26159.50842617  .00010612  00000+0  22119-3 0  9995
2 39679  51.6058 253.2847 0091641  74.4037 286.7040 15.41771019670273
ALOS-2                  
1 39766U 14029A   26159.54979360  .00001451  00000+0  20114-3 0  9994
2 39766  97.9210 256.8376 0001671  90.6305 269.5098 14.79472067650306
YAOGAN-29               
1 41038U 15069A   26160.28403106 -.00000029  00000+0  30748-5 0  9994
2 41038  98.0033 188.9045 0002877  66.2455 293.9060 14.83077115569453
ASTRO-H (HITOMI)        
1 41337U 16012A   26160.17061656  .00002073  00000+0  11712-3 0  9991
2 41337  30.9980 125.9593 0009628 173.7339 186.3421 15.10475751566076
HXMT (HUIYAN)           
1 42758U 17034A   26160.30657192  .00003848  00000+0  19305-3 0  9992
2 42758  43.0132 226.9215 0030182  95.1631 265.2663 15.18422256496462
SAOCOM 1A               
1 43641U 18076A   26160.30478990  .00000244  00000+0  37192-4 0  9990
2 43641  97.8889 347.1683 0001520  77.3290 282.8093 14.82169059414935
H-2A R/B                
1 43682U 18084L   26160.22688708  .00017164  00000+0  36412-3 0  9997
2 43682  98.8593  37.3792 0024184  66.9346 293.4445 15.44846396419893
SAOCOM 1B               
1 46265U 20059A   26160.26855686  .00000344  00000+0  49780-4 0  9992
2 46265  97.8891 346.2270 0001473  80.1782 279.9598 14.82163910312316
CSS (TIANHE)            
1 48274U 21035A   26160.23389516  .00019782  00000+0  23663-3 0  9997
2 48274  41.4695  10.3915 0008414  13.9110 346.1959 15.60473761291927
COSMOS 2550             
1 48865U 21056A   26159.80793882  .00006310  00000+0  19790-3 0  9991
2 48865  67.1416 125.2525 0008705 266.0377  93.9783 15.33755463277435
CZ-2C R/B               
1 52794U 22058K   26160.30752051  .00027646  00000+0  31508-3 0  9996
2 52794  50.1847 204.5029 0033003 234.9929 124.7946 15.61315635224415
CZ-2C R/B               
1 54039U 22132E   26159.99956035  .00052653  00000+0  42432-3 0  9998
2 54039  97.2913 166.6634 0016941 109.3959 250.9136 15.70563245204665
GSLV R/B                
1 54149U 22138AN  26159.89706717  .00002276  00000+0  19342-3 0  9995
2 54149  87.3798 135.7685 0021602 172.4257 187.7305 14.97221421197574
XRISM                   
1 57800U 23137A   26160.00710885  .00004348  00000+0  23876-3 0  9997
2 57800  31.0027  52.5857 0007923 242.6869 117.2963 15.12393787151625
ACS3                    
1 59588U 24077B   26160.23754771  .00021179  00000+0  15830-1 0  9993
2 59588  97.1675  80.8012 0053700  68.3267 292.3607 13.93922347106939
CZ-8A R/B               
1 66004U 25231K   26160.01654779 -.00000032  00000+0  47016-4 0  9990
2 66004  50.0043  74.0772 0116475 195.2486 164.4907 14.30152604 33773
SZ-21 MODULE            
1 66515U 25246C   26159.85148266  .00040731  00000+0  25860-3 0  9993
2 66515  41.4714 359.2138 0006700 299.9993  60.0186 15.75674541 32427
